{"type":"FeatureCollection","name":"VN_Vung_Bien_Phap_Ly_2026","features":[{"type":"Feature","properties":{"layer":"duong_co_so","name":"Đường cơ sở Việt Nam (A1–A24)","status":"official_coordinates"},"geometry":{"type":"LineString","coordinates":[[103.45,9.25],[104.87333,8.38],[106.625,8.63],[109.08333,9.96667],[109.46667,12.65],[109.35,13.9],[109.15,15.385],[107.34333,17.16667],[106.48992,18.11736],[105.98903,18.79117],[105.9385,19.37686],[107.20894,20.61331],[107.45414,20.71628],[107.82247,20.98397],[108.02158,21.19144],[108.10119,21.47014]]}},{"type":"Feature","properties":{"layer":"diem_co_so","code":"A1","name":"Hòn Nhạn, quần đảo Thổ Chu","status":"official_coordinates"},"geometry":{"type":"Point","coordinates":[103.45,9.25]}},{"type":"Feature","properties":{"layer":"diem_co_so","code":"A2","name":"Hòn Đá Lẻ, đông nam Hòn Khoai","status":"official_coordinates"},"geometry":{"type":"Point","coordinates":[104.87333,8.38]}},{"type":"Feature","properties":{"layer":"diem_co_so","code":"A3","name":"Hòn Tài Lớn, Côn Đảo","status":"official_coordinates"},"geometry":{"type":"Point","coordinates":[106.625,8.63]}},{"type":"Feature","properties":{"layer":"diem_co_so","code":"A4","name":"Hòn Bông Lang, Côn Đảo","status":"official_coordinates"},"geometry":{"type":"Point","coordinates":[106.67167,8.64833]}},{"type":"Feature","properties":{"layer":"diem_co_so","code":"A5","name":"Hòn Bảy Cạnh, Côn Đảo","status":"official_coordinates"},"geometry":{"type":"Point","coordinates":[106.70167,8.66167]}},{"type":"Feature","properties":{"layer":"diem_co_so","code":"A6","name":"Hòn Hải, nhóm đảo Phú Quý","status":"official_coordinates"},"geometry":{"type":"Point","coordinates":[109.08333,9.96667]}},{"type":"Feature","properties":{"layer":"diem_co_so","code":"A7","name":"Hòn Đôi","status":"official_coordinates"},"geometry":{"type":"Point","coordinates":[109.46667,12.65]}},{"type":"Feature","properties":{"layer":"diem_co_so","code":"A8","name":"Mũi Đại Lãnh","status":"official_coordinates"},"geometry":{"type":"Point","coordinates":[109.45333,12.89667]}},{"type":"Feature","properties":{"layer":"diem_co_so","code":"A9","name":"Hòn Ông Căn","status":"official_coordinates"},"geometry":{"type":"Point","coordinates":[109.35,13.9]}},{"type":"Feature","properties":{"layer":"diem_co_so","code":"A10","name":"Đảo Lý Sơn","status":"official_coordinates"},"geometry":{"type":"Point","coordinates":[109.15,15.385]}},{"type":"Feature","properties":{"layer":"diem_co_so","code":"A11","name":"Đảo Cồn Cỏ","status":"official_coordinates"},"geometry":{"type":"Point","coordinates":[107.34333,17.16667]}},{"type":"Feature","properties":{"layer":"diem_co_so","code":"A12","name":"Hòn Gió Lớn","status":"official_coordinates"},"geometry":{"type":"Point","coordinates":[106.67383,17.91336]}},{"type":"Feature","properties":{"layer":"diem_co_so","code":"A13","name":"Hòn Chim","status":"official_coordinates"},"geometry":{"type":"Point","coordinates":[106.48992,18.11736]}},{"type":"Feature","properties":{"layer":"diem_co_so","code":"A14","name":"Hòn Mắt Con","status":"official_coordinates"},"geometry":{"type":"Point","coordinates":[105.98903,18.79117]}},{"type":"Feature","properties":{"layer":"diem_co_so","code":"A15","name":"Đảo Hòn Mê","status":"official_coordinates"},"geometry":{"type":"Point","coordinates":[105.9385,19.37686]}},{"type":"Feature","properties":{"layer":"diem_co_so","code":"A16","name":"Đảo Long Châu Đông","status":"official_coordinates"},"geometry":{"type":"Point","coordinates":[107.20894,20.61331]}},{"type":"Feature","properties":{"layer":"diem_co_so","code":"A17","name":"Đảo Hạ Mai","status":"official_coordinates"},"geometry":{"type":"Point","coordinates":[107.45414,20.71628]}},{"type":"Feature","properties":{"layer":"diem_co_so","code":"A18","name":"Đảo Hạ Mai","status":"official_coordinates"},"geometry":{"type":"Point","coordinates":[107.46394,20.72258]}},{"type":"Feature","properties":{"layer":"diem_co_so","code":"A19","name":"Đảo Thanh Lam","status":"official_coordinates"},"geometry":{"type":"Point","coordinates":[107.82247,20.98397]}},{"type":"Feature","properties":{"layer":"diem_co_so","code":"A20","name":"Đảo Thanh Lam","status":"official_coordinates"},"geometry":{"type":"Point","coordinates":[107.86292,21.02386]}},{"type":"Feature","properties":{"layer":"diem_co_so","code":"A21","name":"Hòn Bồ Cát","status":"official_coordinates"},"geometry":{"type":"Point","coordinates":[108.01933,21.18878]}},{"type":"Feature","properties":{"layer":"diem_co_so","code":"A22","name":"Hòn Bồ Cát","status":"official_coordinates"},"geometry":{"type":"Point","coordinates":[108.02158,21.19144]}},{"type":"Feature","properties":{"layer":"diem_co_so","code":"A23","name":"Đảo Trà Cổ","status":"official_coordinates"},"geometry":{"type":"Point","coordinates":[108.09244,21.47081]}},{"type":"Feature","properties":{"layer":"diem_co_so","code":"A24","name":"Điểm 1 Hiệp định phân định Vịnh Bắc Bộ 2000","status":"official_coordinates"},"geometry":{"type":"Point","coordinates":[108.10119,21.47014]}},{"type":"Feature","properties":{"layer":"lanh_hai_12nm","name":"Lãnh hải 12 hải lý","distance_nm":"0-12","status":"technical_envelope_clipped_in_gulf"},"geometry":{"type":"Polygon","coordinates":[[[103.45,9.25],[104.87333,8.38],[106.625,8.63],[109.08333,9.96667],[109.46667,12.65],[109.35,13.9],[109.15,15.385],[107.34333,17.16667],[106.48992,18.11736],[105.98903,18.79117],[105.9385,19.37686],[107.20894,20.61331],[107.45414,20.71628],[107.82247,20.98397],[108.02158,21.19144],[108.09244,21.47081],[108.10119,21.47014],[108.08383,21.27008],[108.12985,21.29751],[108.13472,21.27556],[108.20861,21.20972],[108.22472,21.13336],[108.17961,21.05583],[107.96171,20.83174],[107.59297,20.56276],[107.33175,20.44926],[106.15707,19.30272],[106.19449,18.86246],[106.65531,18.24115],[107.49705,17.3027],[108.94772,15.87487],[109.33622,15.47282],[109.55428,13.92303],[109.65751,12.91214],[109.671,12.64021],[109.29166,9.99236],[109.25011,9.85254],[109.1328,9.76447],[106.74905,8.46274],[106.60013,8.42357],[104.95545,8.18884],[104.83233,8.18325],[104.72163,8.2371],[103.34449,9.07859],[103.45,9.25]],[[106.1539,19.33993],[106.13754,19.30896],[106.13011,19.27624],[106.15707,19.30272],[106.1539,19.33993]],[[106.19233,18.86536],[106.18748,18.859],[106.19464,18.86068],[106.19233,18.86536]]]}},{"type":"Feature","properties":{"layer":"tiep_giap_lanh_hai","name":"Vùng tiếp giáp lãnh hải","distance_nm":"12-24","status":"technical_envelope_clipped_in_gulf"},"geometry":{"type":"MultiPolygon","coordinates":[[[[103.34449,9.07859],[104.72163,8.2371],[104.83233,8.18325],[104.95545,8.18884],[106.60013,8.42357],[106.67576,8.43551],[106.79389,8.48292],[109.1328,9.76447],[109.25011,9.85254],[109.29166,9.99236],[109.671,12.64021],[109.65751,12.91214],[109.55428,13.92303],[109.33622,15.47282],[108.94772,15.87487],[107.49705,17.3027],[106.65531,18.24115],[106.19449,18.86246],[106.15707,19.30272],[107.33175,20.44926],[107.59297,20.56276],[107.96171,20.83174],[108.17961,21.05583],[108.22472,21.13336],[108.28195,20.86213],[108.10068,20.6794],[107.72174,20.40284],[107.45645,20.27776],[106.37545,19.22832],[106.40012,18.93353],[106.82093,18.3648],[107.65099,17.43861],[109.40857,15.70351],[109.52259,15.56048],[109.56768,15.38397],[109.7586,13.9459],[109.8617,12.92745],[109.87531,12.63027],[109.49236,9.96425],[109.41678,9.73832],[109.22998,9.58819],[106.82637,8.27713],[106.62834,8.2246],[104.98449,7.98999],[104.79136,7.98649],[104.61584,8.06603],[103.23909,8.90714],[103.34449,9.07859]],[[107.4732,20.29386],[107.4543,20.28512],[107.43162,20.26733],[107.45645,20.27776],[107.4732,20.29386]],[[106.37545,19.22832],[106.36474,19.35599],[106.33642,19.24083],[106.28207,19.1367],[106.37545,19.22832]],[[106.40012,18.93353],[106.36446,18.98146],[106.40487,18.87671],[106.40012,18.93353]]],[[[106.19233,18.86536],[106.19464,18.86068],[106.18748,18.859],[106.19233,18.86536]]],[[[106.15707,19.30272],[106.13011,19.27624],[106.1539,19.33993],[106.15707,19.30272]]],[[[108.06651,21.07001],[108.08383,21.27008],[108.12985,21.29751],[108.13472,21.27556],[108.20861,21.20972],[108.21933,21.15894],[108.06651,21.07001]]]]}},{"type":"Feature","properties":{"layer":"eez_reference_band","name":"Vùng đặc quyền kinh tế – dải hiển thị tham khảo","distance_nm":"24-200","status":"technical_reference_not_delimitation"},"geometry":{"type":"MultiPolygon","coordinates":[[[[103.23909,8.90714],[104.61584,8.06603],[104.79136,7.98649],[104.98449,7.98999],[106.72647,8.24102],[106.88603,8.30414],[109.22998,9.58819],[109.41678,9.73832],[109.49236,9.96425],[109.87531,12.63027],[109.8617,12.92745],[109.7586,13.9459],[109.56768,15.38397],[109.52259,15.56048],[109.40857,15.70351],[107.65099,17.43861],[106.82093,18.3648],[106.40012,18.93353],[106.37545,19.22832],[107.45645,20.27776],[107.72174,20.40284],[108.02889,20.62659],[107.97613,20.00483],[107.52778,19.65917],[107.35,19.42389],[107.21194,19.42389],[107.18972,19.26778],[107.15944,19.21528],[107.15944,18.71444],[107.56667,18.23028],[107.6525,18.07028],[107.96667,17.78333],[108.94852,17.78333],[108.88208,17.68251],[108.68148,17.57349],[108.85964,17.64846],[108.48254,17.07622],[109.21625,17.78333],[111.57405,17.78333],[112.27457,16.82738],[112.58397,15.74196],[112.75975,14.26135],[112.87164,12.85468],[112.86995,12.46655],[112.8279,12.10588],[112.43191,9.53838],[111.8489,8.0543],[110.64474,6.99967],[108.22878,5.67976],[107.95287,5.55317],[107.46517,5.38759],[107.03924,5.30597],[105.40759,5.0731],[104.19447,5.10014],[103.07335,5.55397],[101.70336,6.38932],[103.23909,8.90714]]],[[[106.40487,18.87671],[106.38609,18.92662],[106.36446,18.98146],[106.40012,18.93353],[106.40487,18.87671]]],[[[106.37545,19.22832],[106.32149,19.17541],[106.28207,19.1367],[106.33642,19.24083],[106.36474,19.35599],[106.37545,19.22832]]],[[[107.45645,20.27776],[107.43162,20.26733],[107.4732,20.29386],[107.45645,20.27776]]],[[[108.27579,20.85566],[108.10068,20.6794],[108.02889,20.62659],[108.06651,21.07001],[108.21933,21.15894],[108.27579,20.85566]]],[[[108.88208,17.68251],[109.06759,17.78333],[109.12379,17.78333],[108.85964,17.64846],[108.88208,17.68251]]]]}},{"type":"Feature","properties":{"layer":"gioi_han_200nm_ky_thuat","name":"Đường 200 hải lý kỹ thuật","distance_nm":"200","status":"technical_reference_not_delimitation"},"geometry":{"type":"LineString","coordinates":[[101.70336,6.38932],[103.07335,5.55397],[104.19447,5.10014],[105.40759,5.0731],[107.03924,5.30597],[107.46517,5.38759],[107.95287,5.55317],[108.22878,5.67976],[110.64474,6.99967],[111.8489,8.0543],[112.43191,9.53838],[112.8279,12.10588],[112.86995,12.46655],[112.87164,12.85468],[112.84876,13.26232],[112.75975,14.26135],[112.58397,15.74196],[112.27457,16.82738],[111.6161,17.74081],[110.7581,18.60361],[110.64052,18.72104],[110.56206,18.79929],[110.52281,18.83841],[110.32629,19.03389],[110.08994,19.26826],[110.01102,19.34633],[109.97154,19.38536],[109.93204,19.42438],[109.89252,19.46339],[109.98456,19.36558],[109.94968,19.40535],[109.91478,19.44511],[109.87987,19.48486],[109.77505,19.60409],[109.60004,19.8027],[109.45977,19.9615],[109.2834,20.16078],[109.24687,20.20203],[109.21031,20.24328],[109.34927,20.06967],[109.28771,20.15477],[109.25691,20.19731],[109.22609,20.23986],[109.13356,20.36745],[108.91714,20.66503],[109.31753,19.89335],[109.49255,19.08435],[109.48908,19.13758],[109.48562,19.19081],[109.47869,19.29727],[109.46139,19.56342],[109.23455,18.21737],[108.48254,17.07622],[109.0752,17.64815],[109.23396,17.80028],[109.31345,17.87628],[109.35322,17.91427],[109.39301,17.95224],[109.6721,18.21778],[109.22343,17.86803],[108.68148,17.57349],[108.82619,17.63406],[108.97803,17.69941],[109.5811,18.04663],[110.10827,18.43242],[110.38529,18.67844],[110.45676,18.74888],[110.51964,18.81374],[110.55096,18.84622],[110.58229,18.87869],[110.65489,18.95391],[111.44745,20.29271],[111.53794,20.61502],[111.35904,20.14442],[107.81749,18.13501]]}},{"type":"Feature","properties":{"layer":"them_luc_dia_200nm_tham_khao","name":"Thềm lục địa trong phạm vi 200 hải lý – tham khảo","status":"seabed_reference_only"},"geometry":{"type":"MultiPolygon","coordinates":[[[[103.45,9.25],[104.87333,8.38],[106.625,8.63],[109.08333,9.96667],[109.46667,12.65],[109.35,13.9],[109.15,15.385],[107.34333,17.16667],[106.48992,18.11736],[105.98903,18.79117],[105.9385,19.37686],[107.20894,20.61331],[107.45414,20.71628],[107.82247,20.98397],[108.02158,21.19144],[108.09244,21.47081],[108.10119,21.47014],[107.97658,20.00528],[107.52778,19.65917],[107.35,19.42389],[107.21194,19.42389],[107.18972,19.26778],[107.15944,19.21528],[107.15944,18.71444],[107.56667,18.23028],[107.6525,18.07028],[107.96667,17.78333],[108.94852,17.78333],[108.88208,17.68251],[108.68148,17.57349],[108.85964,17.64846],[108.48254,17.07622],[109.21625,17.78333],[111.57405,17.78333],[112.27457,16.82738],[112.58397,15.74196],[112.75975,14.26135],[112.87164,12.85468],[112.86995,12.46655],[112.8279,12.10588],[112.43191,9.53838],[111.8489,8.0543],[110.64474,6.99967],[108.22878,5.67976],[107.95287,5.55317],[107.46517,5.38759],[107.03924,5.30597],[105.40759,5.0731],[104.19447,5.10014],[103.07335,5.55397],[101.70336,6.38932],[103.45,9.25]]],[[[108.88208,17.68251],[109.06759,17.78333],[109.12379,17.78333],[108.85964,17.64846],[108.88208,17.68251]]]]}},{"type":"Feature","properties":{"layer":"vung_ngoai_200nm_tham_khao","name":"Vùng ngoài đường 200 hải lý kỹ thuật","status":"not_equivalent_to_high_seas"},"geometry":{"type":"MultiPolygon","coordinates":[[[[99.0,5.0],[99.0,23.5],[120.0,23.5],[120.0,5.0],[99.0,5.0]],[[108.94852,17.78333],[107.96667,17.78333],[107.6525,18.07028],[107.56667,18.23028],[107.15944,18.71444],[107.15944,19.21528],[107.18972,19.26778],[107.21194,19.42389],[107.35,19.42389],[107.52778,19.65917],[107.97658,20.00528],[108.09244,21.47081],[108.02158,21.19144],[107.82247,20.98397],[107.45414,20.71628],[107.20894,20.61331],[105.9385,19.37686],[105.98903,18.79117],[106.48992,18.11736],[107.34333,17.16667],[109.15,15.385],[109.35,13.9],[109.46667,12.65],[109.08333,9.96667],[106.625,8.63],[104.87333,8.38],[103.45,9.25],[101.70336,6.38932],[103.07335,5.55397],[104.19447,5.10014],[105.40759,5.0731],[107.03924,5.30597],[107.46517,5.38759],[107.95287,5.55317],[108.22878,5.67976],[110.64474,6.99967],[111.8489,8.0543],[112.43191,9.53838],[112.8279,12.10588],[112.86995,12.46655],[112.87164,12.85468],[112.84876,13.26232],[112.75975,14.26135],[112.58397,15.74196],[112.27457,16.82738],[111.57405,17.78333],[109.21625,17.78333],[108.48254,17.07622],[108.85964,17.64846],[109.12379,17.78333],[109.06759,17.78333],[108.88208,17.68251],[108.94852,17.78333]]],[[[108.85964,17.64846],[108.77794,17.61388],[108.68148,17.57349],[108.88208,17.68251],[108.85964,17.64846]]]]}},{"type":"Feature","properties":{"layer":"phan_dinh_vinh_bac_bo_2000","name":"Đường phân định Việt Nam–Trung Quốc trong Vịnh Bắc Bộ (2000)","status":"bilateral_agreement"},"geometry":{"type":"LineString","coordinates":[[108.10119,21.47014],[108.10044,21.46714],[108.09936,21.46392],[108.09764,21.46097],[108.09442,21.45783],[108.09411,21.45642],[108.09547,21.45228],[108.13472,21.27556],[108.20861,21.20972],[108.37917,20.40139],[107.92972,19.95917],[107.52778,19.65917],[107.35,19.42389],[107.21194,19.42389],[107.18972,19.26778],[107.15944,19.21528],[107.15944,18.71444],[107.56667,18.23028],[107.62611,18.11889],[107.6525,18.07028],[107.96667,17.78333]]}},{"type":"Feature","properties":{"layer":"ranh_ngoai_lanh_hai_bac_luan_2025","name":"Ranh giới ngoài lãnh hải khu vực cửa sông Bắc Luân (2025)","status":"official_coordinates"},"geometry":{"type":"LineString","coordinates":[[108.10119,21.47014],[108.13472,21.27556],[108.20861,21.20972],[108.18269,21.05919]]}}]}